[{"OBJECT_NAME":"HORS 3 (RS81S)","OBJECT_ID":"2024-199U","EPOCH":"2026-03-07T04:34:15.790656","MEAN_MOTION":15.48163729,"ECCENTRICITY":0.0005822,"INCLINATION":97.3128,"RA_OF_ASC_NODE":300.4289,"ARG_OF_PERICENTER":303.2733,"MEAN_ANOMALY":56.7959,"EPHEMERIS_TYPE":0,"CLASSIFICATION_TYPE":"U","NORAD_CAT_ID":61753,"ELEMENT_SET_NO":999,"REV_AT_EPOCH":12174,"BSTAR":0.00073605,"MEAN_MOTION_DOT":0.0003875,"MEAN_MOTION_DDOT":0},{"OBJECT_NAME":"HORS 4 (RS82S)","OBJECT_ID":"2024-199V","EPOCH":"2026-03-07T03:12:35.292384","MEAN_MOTION":15.50926805,"ECCENTRICITY":0.0005444,"INCLINATION":97.3101,"RA_OF_ASC_NODE":301.0589,"ARG_OF_PERICENTER":300.9213,"MEAN_ANOMALY":59.1504,"EPHEMERIS_TYPE":0,"CLASSIFICATION_TYPE":"U","NORAD_CAT_ID":61754,"ELEMENT_SET_NO":999,"REV_AT_EPOCH":12178,"BSTAR":0.00078653,"MEAN_MOTION_DOT":0.00045668,"MEAN_MOTION_DDOT":0},{"OBJECT_NAME":"HORIZON (RS59S)","OBJECT_ID":"2024-199Y","EPOCH":"2026-03-07T03:11:27.782016","MEAN_MOTION":15.69386897,"ECCENTRICITY":0.0003012,"INCLINATION":97.3069,"RA_OF_ASC_NODE":304.8241,"ARG_OF_PERICENTER":267.2082,"MEAN_ANOMALY":92.8835,"EPHEMERIS_TYPE":0,"CLASSIFICATION_TYPE":"U","NORAD_CAT_ID":61757,"ELEMENT_SET_NO":999,"REV_AT_EPOCH":12202,"BSTAR":0.0012781,"MEAN_MOTION_DOT":0.00151906,"MEAN_MOTION_DDOT":0},{"OBJECT_NAME":"ARCTICSAT 1 (RS74S)","OBJECT_ID":"2024-199AD","EPOCH":"2026-03-07T03:19:43.489056","MEAN_MOTION":15.65106669,"ECCENTRICITY":0.0003452,"INCLINATION":97.309,"RA_OF_ASC_NODE":304.3684,"ARG_OF_PERICENTER":266.2496,"MEAN_ANOMALY":93.8369,"EPHEMERIS_TYPE":0,"CLASSIFICATION_TYPE":"U","NORAD_CAT_ID":61762,"ELEMENT_SET_NO":999,"REV_AT_EPOCH":12199,"BSTAR":0.0011658,"MEAN_MOTION_DOT":0.00116106,"MEAN_MOTION_DDOT":0},{"OBJECT_NAME":"SIT-2086","OBJECT_ID":"2024-199AF","EPOCH":"2026-03-07T03:15:15.038208","MEAN_MOTION":15.47486752,"ECCENTRICITY":0.0006076,"INCLINATION":97.3122,"RA_OF_ASC_NODE":301.1074,"ARG_OF_PERICENTER":283.2973,"MEAN_ANOMALY":76.76,"EPHEMERIS_TYPE":0,"CLASSIFICATION_TYPE":"U","NORAD_CAT_ID":61764,"ELEMENT_SET_NO":999,"REV_AT_EPOCH":11862,"BSTAR":0.00053377,"MEAN_MOTION_DOT":0.00027387,"MEAN_MOTION_DDOT":0},{"OBJECT_NAME":"RUZAEVKA 390 (RS44S)","OBJECT_ID":"2024-199AH","EPOCH":"2026-03-07T04:14:54.364704","MEAN_MOTION":16.11800645,"ECCENTRICITY":0.0002752,"INCLINATION":97.2781,"RA_OF_ASC_NODE":308.3911,"ARG_OF_PERICENTER":172.4659,"MEAN_ANOMALY":187.6668,"EPHEMERIS_TYPE":0,"CLASSIFICATION_TYPE":"U","NORAD_CAT_ID":61766,"ELEMENT_SET_NO":999,"REV_AT_EPOCH":11912,"BSTAR":0.0018125,"MEAN_MOTION_DOT":0.01804327,"MEAN_MOTION_DDOT":0.0027609},{"OBJECT_NAME":"HYPERVIEW 1G (RS66S)","OBJECT_ID":"2024-199AP","EPOCH":"2026-03-07T04:29:31.746336","MEAN_MOTION":15.57554331,"ECCENTRICITY":0.0006672,"INCLINATION":97.3084,"RA_OF_ASC_NODE":302.1948,"ARG_OF_PERICENTER":296.9435,"MEAN_ANOMALY":63.1138,"EPHEMERIS_TYPE":0,"CLASSIFICATION_TYPE":"U","NORAD_CAT_ID":61772,"ELEMENT_SET_NO":999,"REV_AT_EPOCH":11871,"BSTAR":0.0010312,"MEAN_MOTION_DOT":0.00076526,"MEAN_MOTION_DDOT":0},{"OBJECT_NAME":"ALTAIR (RS65S)","OBJECT_ID":"2024-199AW","EPOCH":"2026-03-07T03:49:12.661248","MEAN_MOTION":15.34933691,"ECCENTRICITY":0.0012298,"INCLINATION":97.3181,"RA_OF_ASC_NODE":296.2373,"ARG_OF_PERICENTER":318.4177,"MEAN_ANOMALY":41.613,"EPHEMERIS_TYPE":0,"CLASSIFICATION_TYPE":"U","NORAD_CAT_ID":61779,"ELEMENT_SET_NO":999,"REV_AT_EPOCH":12145,"BSTAR":0.00033875,"MEAN_MOTION_DOT":0.00011429,"MEAN_MOTION_DDOT":0},{"OBJECT_NAME":"ASRTU-1 (AO-123)","OBJECT_ID":"2024-199AY","EPOCH":"2026-03-07T03:17:40.846848","MEAN_MOTION":15.33998537,"ECCENTRICITY":0.0013055,"INCLINATION":97.3153,"RA_OF_ASC_NODE":295.7473,"ARG_OF_PERICENTER":320.4225,"MEAN_ANOMALY":39.6064,"EPHEMERIS_TYPE":0,"CLASSIFICATION_TYPE":"U","NORAD_CAT_ID":61781,"ELEMENT_SET_NO":999,"REV_AT_EPOCH":11827,"BSTAR":0.00033867,"MEAN_MOTION_DOT":0.00011094,"MEAN_MOTION_DDOT":0},{"OBJECT_NAME":"TUSUR GO (RS78S)","OBJECT_ID":"2024-199AZ","EPOCH":"2026-03-07T03:31:21.309888","MEAN_MOTION":15.6988346,"ECCENTRICITY":0.0003819,"INCLINATION":97.3025,"RA_OF_ASC_NODE":303.8484,"ARG_OF_PERICENTER":289.9184,"MEAN_ANOMALY":70.1666,"EPHEMERIS_TYPE":0,"CLASSIFICATION_TYPE":"U","NORAD_CAT_ID":61782,"ELEMENT_SET_NO":999,"REV_AT_EPOCH":11882,"BSTAR":0.0013766,"MEAN_MOTION_DOT":0.00167331,"MEAN_MOTION_DDOT":0},{"OBJECT_NAME":"SAMSAT-IONOSPHERE (RS75S)","OBJECT_ID":"2024-199BB","EPOCH":"2026-03-07T03:38:46.999104","MEAN_MOTION":15.49288525,"ECCENTRICITY":0.0008857,"INCLINATION":97.3116,"RA_OF_ASC_NODE":300.179,"ARG_OF_PERICENTER":304.9001,"MEAN_ANOMALY":55.1417,"EPHEMERIS_TYPE":0,"CLASSIFICATION_TYPE":"U","NORAD_CAT_ID":61784,"ELEMENT_SET_NO":999,"REV_AT_EPOCH":12172,"BSTAR":0.00078553,"MEAN_MOTION_DOT":0.00043078,"MEAN_MOTION_DDOT":0},{"OBJECT_NAME":"RTU MIREA 1 (RS51S)","OBJECT_ID":"2024-199BC","EPOCH":"2026-03-07T03:40:17.178240","MEAN_MOTION":15.5117829,"ECCENTRICITY":0.0008583,"INCLINATION":97.3115,"RA_OF_ASC_NODE":300.6172,"ARG_OF_PERICENTER":300.352,"MEAN_ANOMALY":59.6883,"EPHEMERIS_TYPE":0,"CLASSIFICATION_TYPE":"U","NORAD_CAT_ID":61785,"ELEMENT_SET_NO":999,"REV_AT_EPOCH":11860,"BSTAR":0.00083581,"MEAN_MOTION_DOT":0.00049034,"MEAN_MOTION_DDOT":0},{"OBJECT_NAME":"TEVEL2-4","OBJECT_ID":"2025-052D","EPOCH":"2026-03-06T22:46:20.208000","MEAN_MOTION":15.3077585,"ECCENTRICITY":0.0004639,"INCLINATION":97.4023,"RA_OF_ASC_NODE":322.3854,"ARG_OF_PERICENTER":100.8672,"MEAN_ANOMALY":259.3091,"EPHEMERIS_TYPE":0,"CLASSIFICATION_TYPE":"U","NORAD_CAT_ID":63213,"ELEMENT_SET_NO":999,"REV_AT_EPOCH":5445,"BSTAR":0.0007448,"MEAN_MOTION_DOT":0.00022123,"MEAN_MOTION_DDOT":0},{"OBJECT_NAME":"TEVEL2-5","OBJECT_ID":"2025-052E","EPOCH":"2026-03-07T03:44:12.737472","MEAN_MOTION":15.30668866,"ECCENTRICITY":0.0004612,"INCLINATION":97.4017,"RA_OF_ASC_NODE":322.565,"ARG_OF_PERICENTER":101.2662,"MEAN_ANOMALY":258.9097,"EPHEMERIS_TYPE":0,"CLASSIFICATION_TYPE":"U","NORAD_CAT_ID":63214,"ELEMENT_SET_NO":999,"REV_AT_EPOCH":5448,"BSTAR":0.00072818,"MEAN_MOTION_DOT":0.00021554,"MEAN_MOTION_DDOT":0},{"OBJECT_NAME":"TEVEL2-6","OBJECT_ID":"2025-052F","EPOCH":"2026-03-07T03:58:15.814848","MEAN_MOTION":15.30628044,"ECCENTRICITY":0.0004729,"INCLINATION":97.4022,"RA_OF_ASC_NODE":322.5605,"ARG_OF_PERICENTER":101.4976,"MEAN_ANOMALY":258.6796,"EPHEMERIS_TYPE":0,"CLASSIFICATION_TYPE":"U","NORAD_CAT_ID":63215,"ELEMENT_SET_NO":999,"REV_AT_EPOCH":5448,"BSTAR":0.00074081,"MEAN_MOTION_DOT":0.00021903,"MEAN_MOTION_DDOT":0},{"OBJECT_NAME":"TEVEL2-1","OBJECT_ID":"2025-052H","EPOCH":"2026-03-07T03:54:44.652384","MEAN_MOTION":15.30212306,"ECCENTRICITY":0.0004705,"INCLINATION":97.3996,"RA_OF_ASC_NODE":322.2925,"ARG_OF_PERICENTER":110.7076,"MEAN_ANOMALY":249.4669,"EPHEMERIS_TYPE":0,"CLASSIFICATION_TYPE":"U","NORAD_CAT_ID":63217,"ELEMENT_SET_NO":999,"REV_AT_EPOCH":5447,"BSTAR":0.00073851,"MEAN_MOTION_DOT":0.00021555,"MEAN_MOTION_DDOT":0}]
