HORS 3 (RS81S)          
1 61753U 24199U   26066.19046054  .00038750  00000+0  73605-3 0  9992
2 61753  97.3128 300.4289 0005822 303.2733  56.7959 15.48163729121740
HORS 4 (RS82S)          
1 61754U 24199V   26066.13374181  .00045668  00000+0  78653-3 0  9996
2 61754  97.3101 301.0589 0005444 300.9213  59.1504 15.50926805121781
HORIZON (RS59S)         
1 61757U 24199Y   26066.13296044  .00151906  00000+0  12781-2 0  9992
2 61757  97.3069 304.8241 0003012 267.2082  92.8835 15.69386897122021
ARCTICSAT 1 (RS74S)     
1 61762U 24199AD  26066.13869779  .00116106  00000+0  11658-2 0  9994
2 61762  97.3090 304.3684 0003452 266.2496  93.8369 15.65106669121994
SIT-2086                
1 61764U 24199AF  26066.13559072  .00027387  00000+0  53377-3 0  9995
2 61764  97.3122 301.1074 0006076 283.2973  76.7600 15.47486752118622
RUZAEVKA 390 (RS44S)    
1 61766U 24199AH  26066.17701811  .01804327  27609-2  18125-2 0  9997
2 61766  97.2781 308.3911 0002752 172.4659 187.6668 16.11800645119125
HYPERVIEW 1G (RS66S)    
1 61772U 24199AP  26066.18717299  .00076526  00000+0  10312-2 0  9996
2 61772  97.3084 302.1948 0006672 296.9435  63.1138 15.57554331118711
ALTAIR (RS65S)          
1 61779U 24199AW  26066.15917432  .00011429  00000+0  33875-3 0  9992
2 61779  97.3181 296.2373 0012298 318.4177  41.6130 15.34933691121458
ASRTU-1 (AO-123)        
1 61781U 24199AY  26066.13727832  .00011094  00000+0  33867-3 0  9995
2 61781  97.3153 295.7473 0013055 320.4225  39.6064 15.33998537118272
TUSUR GO (RS78S)        
1 61782U 24199AZ  26066.14677442  .00167331  00000+0  13766-2 0  9999
2 61782  97.3025 303.8484 0003819 289.9184  70.1666 15.69883460118820
SAMSAT-IONOSPHERE (RS7*)
1 61784U 24199BB  26066.15193286  .00043078  00000+0  78553-3 0  9998
2 61784  97.3116 300.1790 0008857 304.9001  55.1417 15.49288525121725
RTU MIREA 1 (RS51S)     
1 61785U 24199BC  26066.15297660  .00049034  00000+0  83581-3 0  9995
2 61785  97.3115 300.6172 0008583 300.3520  59.6883 15.51178290118605
TEVEL2-4                
1 63213U 25052D   26065.94884500  .00022123  00000+0  74480-3 0  9991
2 63213  97.4023 322.3854 0004639 100.8672 259.3091 15.30775850 54453
TEVEL2-5                
1 63214U 25052E   26066.15570298  .00021554  00000+0  72818-3 0  9992
2 63214  97.4017 322.5650 0004612 101.2662 258.9097 15.30668866 54480
TEVEL2-6                
1 63215U 25052F   26066.16546082  .00021903  00000+0  74081-3 0  9990
2 63215  97.4022 322.5605 0004729 101.4976 258.6796 15.30628044 54483
TEVEL2-1                
1 63217U 25052H   26066.16301681  .00021555  00000+0  73851-3 0  9993
2 63217  97.3996 322.2925 0004705 110.7076 249.4669 15.30212306 54470
